STARLINK-5611           
1 55761U 23028W   26068.85727611  .00000396  00000+0  40944-4 0  9990
2 55761  69.9998 224.2157 0003108 273.1750  86.9054 14.98332841166554
SHIYAN-24C 03           
1 58652U 23206C   26068.89147317  .00001350  00000+0  11928-3 0  9993
2 58652  97.3969  41.7507 0002411  66.6237 293.5240 14.97896938120432
